{
  "type": "FeatureCollection",
  "features": [
    {
      "type": "Feature",
      "properties": {
        "norad_id": 43823,
        "name": "GEO-KOMPSAT-2A",
        "group": "weather",
        "lat": 0.020498965586943772,
        "lon": -162.4806867515061,
        "alt_km": 35786.52453324368,
        "timestamp": "2025-12-19T22:41:52.021599+00:00",
        "meta_object_name": "GEO-KOMPSAT-2A",
        "meta_object_id": "2018-100A",
        "meta_epoch": "2025-12-19T15:35:04.232256",
        "meta_mean_motion": 1.00271282,
        "meta_eccentricity": 4.19e-05,
        "meta_inclination": 0.0523,
        "meta_ra_of_asc_node": 150.9174,
        "meta_arg_of_pericenter": 308.3469,
        "meta_mean_anomaly": 351.2698,
        "meta_ephemeris_type": 0,
        "meta_classification_type": "U",
        "meta_norad_cat_id": 43823,
        "meta_element_set_no": 999,
        "meta_rev_at_epoch": 2583,
        "meta_bstar": 0,
        "meta_mean_motion_dot": -3.19e-06,
        "meta_mean_motion_ddot": 0,
        "tle_line1": "1 43823U 18100A   25353.64935454 -.00000319  00000+0  00000+0 0  9990",
        "tle_line2": "2 43823   0.0523 150.9174 0000419 308.3469 351.2698  1.00271282 25831"
      },
      "geometry": {
        "type": "Point",
        "coordinates": [
          -162.4806867515061,
          0.020498965586943772
        ]
      }
    },
    {
      "type": "Feature",
      "properties": {
        "norad_id": 44387,
        "name": "METEOR-M2 2",
        "group": "weather",
        "lat": -42.142566565954674,
        "lon": 145.6136075468337,
        "alt_km": 817.4238728393839,
        "timestamp": "2025-12-19T22:41:52.021611+00:00",
        "meta_object_name": "METEOR-M2 2",
        "meta_object_id": "2019-038A",
        "meta_epoch": "2025-12-19T18:17:00.915360",
        "meta_mean_motion": 14.24294088,
        "meta_eccentricity": 0.0001576,
        "meta_inclination": 98.897,
        "meta_ra_of_asc_node": 333.5765,
        "meta_arg_of_pericenter": 133.3095,
        "meta_mean_anomaly": 226.8215,
        "meta_ephemeris_type": 0,
        "meta_classification_type": "U",
        "meta_norad_cat_id": 44387,
        "meta_element_set_no": 999,
        "meta_rev_at_epoch": 33575,
        "meta_bstar": 4.8189e-06,
        "meta_mean_motion_dot": -3.5e-07,
        "meta_mean_motion_ddot": 0,
        "tle_line1": "1 44387U 19038A   25353.76181615 -.00000035  00000+0  48189-5 0  9993",
        "tle_line2": "2 44387  98.8970 333.5765 0001576 133.3095 226.8215 14.24294088335755"
      },
      "geometry": {
        "type": "Point",
        "coordinates": [
          145.6136075468337,
          -42.142566565954674
        ]
      }
    },
    {
      "type": "Feature",
      "properties": {
        "norad_id": 47719,
        "name": "ARKTIKA-M 1",
        "group": "weather",
        "lat": 46.65732262923134,
        "lon": -129.31801698570135,
        "alt_km": 24082.9196221431,
        "timestamp": "2025-12-19T22:41:52.021624+00:00",
        "meta_object_name": "ARKTIKA-M 1",
        "meta_object_id": "2021-016A",
        "meta_epoch": "2025-12-19T01:20:05.580096",
        "meta_mean_motion": 2.00630571,
        "meta_eccentricity": 0.7207407,
        "meta_inclination": 63.1758,
        "meta_ra_of_asc_node": 83.1314,
        "meta_arg_of_pericenter": 269.1504,
        "meta_mean_anomaly": 15.5629,
        "meta_ephemeris_type": 0,
        "meta_classification_type": "U",
        "meta_norad_cat_id": 47719,
        "meta_element_set_no": 999,
        "meta_rev_at_epoch": 3517,
        "meta_bstar": 0,
        "meta_mean_motion_dot": -1.23e-06,
        "meta_mean_motion_ddot": 0,
        "tle_line1": "1 47719U 21016A   25353.05562014 -.00000123  00000+0  00000+0 0  9994",
        "tle_line2": "2 47719  63.1758  83.1314 7207407 269.1504  15.5629  2.00630571 35172"
      },
      "geometry": {
        "type": "Point",
        "coordinates": [
          -129.31801698570135,
          46.65732262923134
        ]
      }
    },
    {
      "type": "Feature",
      "properties": {
        "norad_id": 49008,
        "name": "FENGYUN 3E",
        "group": "weather",
        "lat": 65.92760535586534,
        "lon": -25.777195402073296,
        "alt_km": 819.7167330236725,
        "timestamp": "2025-12-19T22:41:52.021685+00:00",
        "meta_object_name": "FENGYUN 3E",
        "meta_object_id": "2021-062A",
        "meta_epoch": "2025-12-19T18:59:54.920832",
        "meta_mean_motion": 14.19879875,
        "meta_eccentricity": 6.96e-05,
        "meta_inclination": 98.7469,
        "meta_ra_of_asc_node": 354.2292,
        "meta_arg_of_pericenter": 214.6954,
        "meta_mean_anomaly": 145.4177,
        "meta_ephemeris_type": 0,
        "meta_classification_type": "U",
        "meta_norad_cat_id": 49008,
        "meta_element_set_no": 999,
        "meta_rev_at_epoch": 23112,
        "meta_bstar": -4.2858e-05,
        "meta_mean_motion_dot": -1.35e-06,
        "meta_mean_motion_ddot": 0,
        "tle_line1": "1 49008U 21062A   25353.79160788 -.00000135  00000+0 -42858-4 0  9997",
        "tle_line2": "2 49008  98.7469 354.2292 0000696 214.6954 145.4177 14.19879875231122"
      },
      "geometry": {
        "type": "Point",
        "coordinates": [
          -25.777195402073296,
          65.92760535586534
        ]
      }
    },
    {
      "type": "Feature",
      "properties": {
        "norad_id": 51850,
        "name": "GOES 18",
        "group": "weather",
        "lat": 0.002603478035188854,
        "lon": -67.7219157503737,
        "alt_km": 35779.49696308642,
        "timestamp": "2025-12-19T22:41:52.021710+00:00",
        "meta_object_name": "GOES 18",
        "meta_object_id": "2022-021A",
        "meta_epoch": "2025-12-19T13:06:13.924800",
        "meta_mean_motion": 1.00280535,
        "meta_eccentricity": 0.0001032,
        "meta_inclination": 0.0096,
        "meta_ra_of_asc_node": 238.6381,
        "meta_arg_of_pericenter": 33.0454,
        "meta_mean_anomaly": 236.2852,
        "meta_ephemeris_type": 0,
        "meta_classification_type": "U",
        "meta_norad_cat_id": 51850,
        "meta_element_set_no": 999,
        "meta_rev_at_epoch": 479,
        "meta_bstar": 0,
        "meta_mean_motion_dot": 1.2e-06,
        "meta_mean_motion_ddot": 0,
        "tle_line1": "1 51850U 22021A   25353.54599450  .00000120  00000+0  00000+0 0  9996",
        "tle_line2": "2 51850   0.0096 238.6381 0001032  33.0454 236.2852  1.00280535  4794"
      },
      "geometry": {
        "type": "Point",
        "coordinates": [
          -67.7219157503737,
          0.002603478035188854
        ]
      }
    },
    {
      "type": "Feature",
      "properties": {
        "norad_id": 54234,
        "name": "NOAA 21 (JPSS-2)",
        "group": "weather",
        "lat": 63.33156912575636,
        "lon": -87.68640878696101,
        "alt_km": 819.7078300986941,
        "timestamp": "2025-12-19T22:41:52.021728+00:00",
        "meta_object_name": "NOAA 21 (JPSS-2)",
        "meta_object_id": "2022-150A",
        "meta_epoch": "2025-12-19T19:00:39.053952",
        "meta_mean_motion": 14.19525995,
        "meta_eccentricity": 0.0001915,
        "meta_inclination": 98.7471,
        "meta_ra_of_asc_node": 290.0126,
        "meta_arg_of_pericenter": 24.0229,
        "meta_mean_anomaly": 336.1036,
        "meta_ephemeris_type": 0,
        "meta_classification_type": "U",
        "meta_norad_cat_id": 54234,
        "meta_element_set_no": 999,
        "meta_rev_at_epoch": 16109,
        "meta_bstar": 4.1691e-05,
        "meta_mean_motion_dot": 4.4e-07,
        "meta_mean_motion_ddot": 0,
        "tle_line1": "1 54234U 22150A   25353.79211868  .00000044  00000+0  41691-4 0  9990",
        "tle_line2": "2 54234  98.7471 290.0126 0001915  24.0229 336.1036 14.19525995161090"
      },
      "geometry": {
        "type": "Point",
        "coordinates": [
          -87.68640878696101,
          63.33156912575636
        ]
      }
    },
    {
      "type": "Feature",
      "properties": {
        "norad_id": 54743,
        "name": "METEOSAT-12 (MTG-I1)",
        "group": "weather",
        "lat": 0.510440225806615,
        "lon": 68.94075649626488,
        "alt_km": 35792.427267107916,
        "timestamp": "2025-12-19T22:41:52.021746+00:00",
        "meta_object_name": "METEOSAT-12 (MTG-I1)",
        "meta_object_id": "2022-170C",
        "meta_epoch": "2025-12-19T06:24:51.136128",
        "meta_mean_motion": 1.00270426,
        "meta_eccentricity": 0.0001481,
        "meta_inclination": 0.6935,
        "meta_ra_of_asc_node": 24.6802,
        "meta_arg_of_pericenter": 239.4026,
        "meta_mean_anomaly": 279.9464,
        "meta_ephemeris_type": 0,
        "meta_classification_type": "U",
        "meta_norad_cat_id": 54743,
        "meta_element_set_no": 999,
        "meta_rev_at_epoch": 1117,
        "meta_bstar": 0,
        "meta_mean_motion_dot": 1.7e-07,
        "meta_mean_motion_ddot": 0,
        "tle_line1": "1 54743U 22170C   25353.26725852  .00000017  00000+0  00000+0 0  9996",
        "tle_line2": "2 54743   0.6935  24.6802 0001481 239.4026 279.9464  1.00270426 11173"
      },
      "geometry": {
        "type": "Point",
        "coordinates": [
          68.94075649626488,
          0.510440225806615
        ]
      }
    }
  ]
}